STARLINK-1816           
1 46714U 20073AW  24354.67616225 -.00001544  00000+0 -84778-4 0  9990
2 46714  53.0534  79.3616 0001623  90.3301 269.7874 15.06387653230051
STARLINK-1817           
1 46715U 20073AX  24354.67248586  .00014688  00000+0  10031-2 0  9992
2 46715  53.0546  79.3768 0001264  85.5988 274.5146 15.06391571230051
STARLINK-1818           
1 46716U 20073AY  24355.25001157  .00111186  00000+0  41304-2 0  9997
2 46716  53.0615  85.8952 0008080 342.3555 349.0792 15.26662973230495
STARLINK-1820           
1 46717U 20073AZ  24354.62457106  .00007933  00000+0  55109-3 0  9990
2 46717  53.0543  79.5925 0001558  90.3143 269.8024 15.06382491230042
STARLINK-1821           
1 46718U 20073BA  24354.66926335  .00004404  00000+0  31440-3 0  9992
2 46718  53.0536  94.4343 0001111  92.8021 267.3095 15.06393923229841
STARLINK-1822           
1 46719U 20073BB  24354.58217551  .00017820  00000+0  12133-2 0  9990
2 46719  53.0536  59.7794 0001458  90.9282 269.1874 15.06365369230321
STARLINK-1826           
1 46723U 20073BF  24354.45177783  .00022915  00000+0  15535-2 0  9993
2 46723  53.0551  55.3673 0001340 108.0368 252.0767 15.06370319230375
STARLINK-1828           
1 46725U 20073BH  24354.72084983  .00000423  00000+0  47302-4 0  9993
2 46725  53.0555  94.1599 0001426  92.1793 267.9359 15.06377962229853
STARLINK-1829           
1 46726U 20073BJ  24354.91667824  .00190993  00000+0  17733-2 0  9991
2 46726  53.0469  68.5410 0004162   4.7075 107.7850 15.66325695  5836
STARLINK-1830           
1 46727U 20073BK  24354.37068929  .00015321  00000+0  10458-2 0  9991
2 46727  53.0543  55.7311 0001695  92.4407 267.6776 15.06378988230367
STARLINK-1848           
1 46740U 20074B   24354.86184666  .00000843  00000+0  75461-4 0  9998
2 46740  53.0538 163.5275 0001562  89.3697 270.7471 15.06399878229559
STARLINK-1865           
1 46741U 20074C   24354.91667824  .00159657  00000+0  16640-2 0  9997
2 46741  53.0488 145.7330 0003201 312.2299 143.5136 15.63528621  5792
STARLINK-1892           
1 46743U 20074E   24354.87151354  .00000065  00000+0  23237-4 0  9990
2 46743  53.0545 158.4804 0001373  87.3365 272.7781 15.06387412229637
STARLINK-1894           
1 46744U 20074F   24354.84944937 -.00001364  00000+0 -72703-4 0  9992
2 46744  53.0534 158.8518 0001277  93.2982 266.8153 15.06393007229629
STARLINK-1905           
1 46746U 20074H   24354.90468845  .00000064  00000+0  23225-4 0  9999
2 46746  53.0548 158.3325 0001357  86.0418 274.0726 15.06391541229639
STARLINK-1908           
1 46747U 20074J   24354.91667824  .00218436  00000+0  17432-2 0  9994
2 46747  53.0479 144.8390 0004735 315.7608 183.6005 15.69941401  5880
STARLINK-1910           
1 46748U 20074K   24355.25001157  .00550460  00000+0  38968-2 0  9997
2 46748  53.0497 137.9690 0001036  72.1687 283.6763 15.71810814229964
STARLINK-1911           
1 46749U 20074L   24354.83466814  .00000532  00000+0  54584-4 0  9990
2 46749  53.0545 158.6492 0001448  87.4967 272.6188 15.06403640229621
STARLINK-1920           
1 46751U 20074N   24354.91667824  .00166858  00000+0  41914-2 0  9991
2 46751  53.0523 147.3017 0002737 274.3252  68.8637 15.38874202  5519
STARLINK-1921           
1 46752U 20074P   24354.91667824  .00263038  00000+0  23169-2 0  9992
2 46752  53.0534 148.5711 0001460   7.1103 311.9730 15.67397969  5850
STARLINK-1922           
1 46753U 20074Q   24354.74250414  .00001039  00000+0  88639-4 0  9993
2 46753  53.0550 159.0598 0001305  95.4194 264.6944 15.06401155229616
STARLINK-1924           
1 46755U 20074S   24354.75495885  .00000788  00000+0  71810-4 0  9992
2 46755  53.0537 164.0037 0001304  93.6560 266.4578 15.06395145229549
STARLINK-1925           
1 46756U 20074T   24354.74705033  .00090712  00000+0  16071-2 0  9993
2 46756  53.0529 154.1658 0002037 254.7132 105.3650 15.49536438229685
STARLINK-1928           
1 46758U 20074V   24354.86920948  .00001226  00000+0  10123-3 0  9997
2 46758  53.0535 163.4934 0001445  91.0879 269.0275 15.06395181229565
STARLINK-1833           
1 46759U 20074W   24354.93095001 -.00001416  00000+0 -76222-4 0  9995
2 46759  53.0527 173.2136 0001576  86.6033 273.5136 15.06388591229425
STARLINK-1896           
1 46760U 20074X   24354.91667824  .00335129  00000+0  24108-2 0  9996
2 46760  53.0522 162.8530 0000900 357.4463 138.2595 15.72068566  5866
STARLINK-1903           
1 46764U 20074AB  24354.73233802  .00059049  00000+0  28047-2 0  9995
2 46764  53.0521 171.9760 0000777  77.3297 282.7784 15.18688972229435
STARLINK-1906           
1 46765U 20074AC  24354.91667824  .00190469  00000+0  19926-2 0  9999
2 46765  53.0484 160.2023 0001219 310.5130 181.6416 15.63324528  5892
STARLINK-1916           
1 46766U 20074AD  24354.91621828 -.00001187  00000+0 -60819-4 0  9993
2 46766  53.0541 173.2799 0001257  94.1857 265.9276 15.06398090229434
STARLINK-1917           
1 46767U 20074AE  24354.91667824  .00914016  00000+0  14246-1 0  9992
2 46767  53.0548 166.3176 0001130  67.1973  98.6023 15.50955267  5834
STARLINK-1918           
1 46768U 20074AF  24354.91667824  .00500688  00000+0  20545-2 0  9999
2 46768  53.0411 151.7737 0005612 309.7915 325.0810 15.84160159  5785
STARLINK-1932           
1 46770U 20074AH  24354.91667824  .00618086  00000+0  11604-1 0  9999
2 46770  53.0534 164.5394 0001141  69.8186 164.4430 15.45759164  5850
STARLINK-1936           
1 46772U 20074AK  24354.91667824  .00189055  00000+0  16875-2 0  9996
2 46772  53.0542 164.7927 0001354  49.6457 104.0307 15.67314709  5756
STARLINK-1798           
1 46779U 20074AS  24354.91667824  .00183944  00000+0  30769-2 0  9992
2 46779  53.0537 139.7732 0004202 300.5068  73.5113 15.50748204229616
STARLINK-1832           
1 46780U 20074AT  24354.84294466  .00000470  00000+0  50416-4 0  9999
2 46780  53.0544 148.6081 0001345  93.3597 266.7546 15.06400005229768
STARLINK-1834           
1 46781U 20074AU  24354.91667824  .00864989  00000+0  12499-1 0  9999
2 46781  53.0534 151.6524 0001230  63.4532  40.2073 15.52805571229470
STARLINK-1835           
1 46782U 20074AV  24354.69920213  .00001189  00000+0  98670-4 0  9992
2 46782  53.0535 149.2555 0001419  93.1115 267.0036 15.06407188229744
STARLINK-1882           
1 46784U 20074AX  24354.87246714 -.00000554  00000+0 -18306-4 0  9996
2 46784  53.0559 148.7083 0001405  86.2991 273.8158 15.06397423229764
STARLINK-1883           
1 46785U 20074AY  24354.91667824  .00157464  00000+0  18887-2 0  9994
2 46785  53.0473 139.1989 0003461 332.4412  46.8863 15.59901904  5831
STARLINK-1893           
1 46786U 20074AZ  24354.81529668 -.00003892  00000+0 -24261-3 0  9998
2 46786  53.0545 128.7333 0001259  81.7445 278.3687 15.06392844230040
STARLINK-1929           
1 46788U 20074BB  24354.91667824  .00250952  00000+0  21470-2 0  9995
2 46788  53.0501 118.4193 0002777 358.7027 253.0428 15.68152014  5766
STARLINK-1930           
1 46789U 20074BC  24354.91667824  .00180815  00000+0  16241-2 0  9996
2 46789  53.0461 145.0535 0004426 318.7306 132.7727 15.67180731  5847
STARLINK-1931           
1 46790U 20074BD  24354.85309705 -.00002134  00000+0 -12449-3 0  9998
2 46790  53.0527 158.5650 0001535  87.9241 272.1924 15.06378369229621
STARLINK-1933           
1 46791U 20074BE  24354.91667824  .00172083  00000+0  14766-2 0  9997
2 46791  53.0531 139.8439 0004584 326.3354 322.1311 15.68333845  5925
STARLINK-1934           
1 46792U 20074BF  24354.82820409  .00000858  00000+0  76484-4 0  9995
2 46792  53.0533 148.6788 0001380  88.1432 271.9715 15.06401300229767
STARLINK-1941           
1 46793U 20074BG  24355.25001157  .00629581  00000+0  11920-1 0  9996
2 46793  53.0537 149.8534 0001248  80.3532 212.4838 15.45835587229455
STARLINK-1942           
1 46794U 20074BH  24354.86414451  .00000000  00000+0  18905-4 0  9990
2 46794  53.0542 158.5139 0001465  92.7378 267.3779 15.06393170229633
STARLINK-1944           
1 46796U 20074BK  24354.83925804  .00000950  00000+0  82655-4 0  9995
2 46796  53.0548 148.6249 0001344  88.1277 271.9866 15.06393671229764
STARLINK-1948           
1 46798U 20074BM  24354.91667824  .00928409  00000+0  11637-1 0  9998
2 46798  53.0484 165.9103 0001425  71.2680 342.7268 15.56937386  5630
STARLINK-1777           
1 47122U 20088A   24354.82544076 -.00000381  00000+0 -66793-5 0  9997
2 47122  53.0538 138.6875 0001113  83.8468 276.2648 15.06393536224782
STARLINK-1785           
1 47124U 20088C   24355.25001157  .00646354  00000+0  67731-2 0  9999
2 47124  53.0524 132.3948 0001089  68.3284 266.2235 15.61761032225218
STARLINK-1812           
1 47126U 20088E   24354.85118943  .00007499  00000+0  52105-3 0  9999
2 47126  53.0539 138.5741 0001141 116.5257 243.5849 15.06452214224799
STARLINK-1837           
1 47128U 20088G   24354.91667824  .00772689  28098-3  15845-2 0  9995
2 47128  53.0414  92.7579 0012134 357.6883 146.8621 15.98661619225730
STARLINK-1838           
1 47129U 20088H   24354.63953354  .00041727  00000+0  12693-2 0  9990
2 47129  53.0517 123.2347 0001353  55.2388 304.8740 15.33638918224990
STARLINK-1843           
1 47133U 20088M   24354.76369137 -.00000155  00000+0  84694-5 0  9993
2 47133  53.0533 128.9691 0001253  90.9576 269.1557 15.06393012224915
STARLINK-1845           
1 47135U 20088P   24354.82267904 -.00001710  00000+0 -95924-4 0  9997
2 47135  53.0548 128.7020 0001470  77.1393 282.9760 15.06401815224923
STARLINK-1846           
1 47136U 20088Q   24354.91667824  .00127249  00000+0  16685-2 0  9992
2 47136  53.0480 129.9279 0001754  11.4039  88.0932 15.57665514  5692
STARLINK-1849           
1 47137U 20088R   24354.67154352 -.00001111  00000+0 -55688-4 0  9992
2 47137  53.0570 129.3747 0001599  79.0000 281.1169 15.06399050224900
STARLINK-1850           
1 47138U 20088S   24355.25001157  .00284940  00000+0  57453-2 0  9993
2 47138  53.0537 125.4544 0001294  71.4850  12.8380 15.44974023225318
